{
  "type": "FeatureCollection",
  "features": [
    {
      "type": "Feature",
      "properties": {
        "norad_id": 40069,
        "name": "METEOR-M 2",
        "group": "weather",
        "lat": -14.679713110800606,
        "lon": 138.87690987893026,
        "alt_km": 822.1991689770039,
        "timestamp": "2025-12-09T09:46:47.290421+00:00",
        "meta_object_name": "METEOR-M 2",
        "meta_object_id": "2014-037A",
        "meta_epoch": "2025-12-09T05:29:14.307648",
        "meta_mean_motion": 14.21383952,
        "meta_eccentricity": 0.0004812,
        "meta_inclination": 98.4898,
        "meta_ra_of_asc_node": 320.9474,
        "meta_arg_of_pericenter": 221.7904,
        "meta_mean_anomaly": 138.2907,
        "meta_ephemeris_type": 0,
        "meta_classification_type": "U",
        "meta_norad_cat_id": 40069,
        "meta_element_set_no": 999,
        "meta_rev_at_epoch": 59233,
        "meta_bstar": 0.00014157,
        "meta_mean_motion_dot": 2.67e-06,
        "meta_mean_motion_ddot": 0,
        "tle_line1": "1 40069U 14037A   25343.22863782  .00000267  00000+0  14157-3 0  9994",
        "tle_line2": "2 40069  98.4898 320.9474 0004812 221.7904 138.2907 14.21383952592336"
      },
      "geometry": {
        "type": "Point",
        "coordinates": [
          138.87690987893026,
          -14.679713110800606
        ]
      }
    },
    {
      "type": "Feature",
      "properties": {
        "norad_id": 40267,
        "name": "HIMAWARI-8",
        "group": "weather",
        "lat": 0.02167683453232878,
        "lon": 5.767900525333439,
        "alt_km": 35784.619093785215,
        "timestamp": "2025-12-09T09:46:47.290433+00:00",
        "meta_object_name": "HIMAWARI-8",
        "meta_object_id": "2014-060A",
        "meta_epoch": "2025-12-08T22:49:55.959168",
        "meta_mean_motion": 1.00270656,
        "meta_eccentricity": 0.0001257,
        "meta_inclination": 0.0331,
        "meta_ra_of_asc_node": 221.8407,
        "meta_arg_of_pericenter": 74.2923,
        "meta_mean_anomaly": 264.9633,
        "meta_ephemeris_type": 0,
        "meta_classification_type": "U",
        "meta_norad_cat_id": 40267,
        "meta_element_set_no": 999,
        "meta_rev_at_epoch": 4085,
        "meta_bstar": 0,
        "meta_mean_motion_dot": -2.73e-06,
        "meta_mean_motion_ddot": 0,
        "tle_line1": "1 40267U 14060A   25342.95134212 -.00000273  00000+0  00000+0 0  9994",
        "tle_line2": "2 40267   0.0331 221.8407 0001257  74.2923 264.9633  1.00270656 40851"
      },
      "geometry": {
        "type": "Point",
        "coordinates": [
          5.767900525333439,
          0.02167683453232878
        ]
      }
    },
    {
      "type": "Feature",
      "properties": {
        "norad_id": 40367,
        "name": "FENGYUN 2G",
        "group": "weather",
        "lat": -4.845551217530329,
        "lon": -35.33654052088956,
        "alt_km": 35780.51945195798,
        "timestamp": "2025-12-09T09:46:47.290446+00:00",
        "meta_object_name": "FENGYUN 2G",
        "meta_object_id": "2014-090A",
        "meta_epoch": "2025-12-08T17:30:10.330272",
        "meta_mean_motion": 1.00265504,
        "meta_eccentricity": 0.0003085,
        "meta_inclination": 5.1581,
        "meta_ra_of_asc_node": 75.1439,
        "meta_arg_of_pericenter": 197.6958,
        "meta_mean_anomaly": 167.0613,
        "meta_ephemeris_type": 0,
        "meta_classification_type": "U",
        "meta_norad_cat_id": 40367,
        "meta_element_set_no": 999,
        "meta_rev_at_epoch": 4009,
        "meta_bstar": 0,
        "meta_mean_motion_dot": -3e-06,
        "meta_mean_motion_ddot": 0,
        "tle_line1": "1 40367U 14090A   25342.72928623 -.00000300  00000+0  00000+0 0  9991",
        "tle_line2": "2 40367   5.1581  75.1439 0003085 197.6958 167.0613  1.00265504 40092"
      },
      "geometry": {
        "type": "Point",
        "coordinates": [
          -35.33654052088956,
          -4.845551217530329
        ]
      }
    },
    {
      "type": "Feature",
      "properties": {
        "norad_id": 40732,
        "name": "METEOSAT-11 (MSG-4)",
        "group": "weather",
        "lat": 0.8035259781101103,
        "lon": -125.53109251508585,
        "alt_km": 35784.37069791183,
        "timestamp": "2025-12-09T09:46:47.290459+00:00",
        "meta_object_name": "METEOSAT-11 (MSG-4)",
        "meta_object_id": "2015-034A",
        "meta_epoch": "2025-12-09T03:20:45.360096",
        "meta_mean_motion": 1.00266372,
        "meta_eccentricity": 9.71e-05,
        "meta_inclination": 2.7263,
        "meta_ra_of_asc_node": 72.0124,
        "meta_arg_of_pericenter": 121.7962,
        "meta_mean_anomaly": 303.867,
        "meta_ephemeris_type": 0,
        "meta_classification_type": "U",
        "meta_norad_cat_id": 40732,
        "meta_element_set_no": 999,
        "meta_rev_at_epoch": 531,
        "meta_bstar": 0,
        "meta_mean_motion_dot": 6.3e-07,
        "meta_mean_motion_ddot": 0,
        "tle_line1": "1 40732U 15034A   25343.13941389  .00000063  00000+0  00000+0 0  9991",
        "tle_line2": "2 40732   2.7263  72.0124 0000971 121.7962 303.8670  1.00266372  5312"
      },
      "geometry": {
        "type": "Point",
        "coordinates": [
          -125.53109251508585,
          0.8035259781101103
        ]
      }
    },
    {
      "type": "Feature",
      "properties": {
        "norad_id": 41105,
        "name": "ELEKTRO-L 2",
        "group": "weather",
        "lat": 4.168922639267852,
        "lon": -149.2757646391004,
        "alt_km": 35777.67892385066,
        "timestamp": "2025-12-09T09:46:47.290471+00:00",
        "meta_object_name": "ELEKTRO-L 2",
        "meta_object_id": "2015-074A",
        "meta_epoch": "2025-12-09T01:31:10.511904",
        "meta_mean_motion": 1.00271905,
        "meta_eccentricity": 0.0003836,
        "meta_inclination": 6.2161,
        "meta_ra_of_asc_node": 72.8685,
        "meta_arg_of_pericenter": 198.9202,
        "meta_mean_anomaly": 174.5581,
        "meta_ephemeris_type": 0,
        "meta_classification_type": "U",
        "meta_norad_cat_id": 41105,
        "meta_element_set_no": 999,
        "meta_rev_at_epoch": 3660,
        "meta_bstar": 0,
        "meta_mean_motion_dot": -1.16e-06,
        "meta_mean_motion_ddot": 0,
        "tle_line1": "1 41105U 15074A   25343.06331611 -.00000116  00000+0  00000+0 0  9993",
        "tle_line2": "2 41105   6.2161  72.8685 0003836 198.9202 174.5581  1.00271905 36607"
      },
      "geometry": {
        "type": "Point",
        "coordinates": [
          -149.2757646391004,
          4.168922639267852
        ]
      }
    },
    {
      "type": "Feature",
      "properties": {
        "norad_id": 41752,
        "name": "INSAT-3DR",
        "group": "weather",
        "lat": -0.05845813589979295,
        "lon": -60.81944560524746,
        "alt_km": 35732.7634765304,
        "timestamp": "2025-12-09T09:46:47.290484+00:00",
        "meta_object_name": "INSAT-3DR",
        "meta_object_id": "2016-054A",
        "meta_epoch": "2025-12-09T03:39:06.103008",
        "meta_mean_motion": 1.00270302,
        "meta_eccentricity": 0.0014519,
        "meta_inclination": 0.0833,
        "meta_ra_of_asc_node": 86.6915,
        "meta_arg_of_pericenter": 183.4993,
        "meta_mean_anomaly": 296.7401,
        "meta_ephemeris_type": 0,
        "meta_classification_type": "U",
        "meta_norad_cat_id": 41752,
        "meta_element_set_no": 999,
        "meta_rev_at_epoch": 3391,
        "meta_bstar": 0,
        "meta_mean_motion_dot": -7.5e-07,
        "meta_mean_motion_ddot": 0,
        "tle_line1": "1 41752U 16054A   25343.15215397 -.00000075  00000+0  00000+0 0  9996",
        "tle_line2": "2 41752   0.0833  86.6915 0014519 183.4993 296.7401  1.00270302 33917"
      },
      "geometry": {
        "type": "Point",
        "coordinates": [
          -60.81944560524746,
          -0.05845813589979295
        ]
      }
    },
    {
      "type": "Feature",
      "properties": {
        "norad_id": 41836,
        "name": "HIMAWARI-9",
        "group": "weather",
        "lat": -0.009255533020716479,
        "lon": 5.883174123457106,
        "alt_km": 35786.62619525983,
        "timestamp": "2025-12-09T09:46:47.290497+00:00",
        "meta_object_name": "HIMAWARI-9",
        "meta_object_id": "2016-064A",
        "meta_epoch": "2025-12-09T03:58:11.773056",
        "meta_mean_motion": 1.00272664,
        "meta_eccentricity": 0.0001257,
        "meta_inclination": 0.0225,
        "meta_ra_of_asc_node": 72.887,
        "meta_arg_of_pericenter": 194.8332,
        "meta_mean_anomaly": 10.7648,
        "meta_ephemeris_type": 0,
        "meta_classification_type": "U",
        "meta_norad_cat_id": 41836,
        "meta_element_set_no": 999,
        "meta_rev_at_epoch": 3330,
        "meta_bstar": 0,
        "meta_mean_motion_dot": -2.72e-06,
        "meta_mean_motion_ddot": 0,
        "tle_line1": "1 41836U 16064A   25343.16541404 -.00000272  00000+0  00000+0 0  9991",
        "tle_line2": "2 41836   0.0225  72.8870 0001257 194.8332  10.7648  1.00272664 33303"
      },
      "geometry": {
        "type": "Point",
        "coordinates": [
          5.883174123457106,
          -0.009255533020716479
        ]
      }
    }
  ]
}